[{"OBJECT_NAME":"FLOCK 4G-28","OBJECT_ID":"2025-009AB","EPOCH":"2026-03-09T04:28:42.447360","MEAN_MOTION":15.33074282,"ECCENTRICITY":9.115e-5,"INCLINATION":97.4053,"RA_OF_ASC_NODE":152.4797,"ARG_OF_PERICENTER":349.2155,"MEAN_ANOMALY":10.9068,"EPHEMERIS_TYPE":0,"CLASSIFICATION_TYPE":"U","NORAD_CAT_ID":62634,"ELEMENT_SET_NO":999,"REV_AT_EPOCH":6375,"BSTAR":0.00037255428,"MEAN_MOTION_DOT":0.0001183,"MEAN_MOTION_DDOT":0},{"OBJECT_NAME":"STARLINK-35202","OBJECT_ID":"2025-210AB","EPOCH":"2026-03-09T22:01:49.326528","MEAN_MOTION":15.30204351,"ECCENTRICITY":0.00011828,"INCLINATION":53.1607,"RA_OF_ASC_NODE":306.1825,"ARG_OF_PERICENTER":60.5851,"MEAN_ANOMALY":299.5268,"EPHEMERIS_TYPE":0,"CLASSIFICATION_TYPE":"U","NORAD_CAT_ID":65647,"ELEMENT_SET_NO":999,"REV_AT_EPOCH":2776,"BSTAR":0.0008220002,"MEAN_MOTION_DOT":0.00024068,"MEAN_MOTION_DDOT":0}]
